*******************************************************************************
 Revised: July 31, 2013                 Venus                           299 / 2
 
 PHYSICAL DATA (updated 2019-Apr-22):
  Vol. Mean Radius (km) =  6051.84+-0.01 Density (g/cm^3)      =  5.204
  Mass x10^23 (kg)      =    48.685      Volume (x10^10 km^3)  = 92.843
  Sidereal rot. period  =   243.018484 d Sid. Rot. Rate (rad/s)= -0.00000029924
  Mean solar day        =   116.7490 d   Equ. gravity  m/s^2   =  8.870
  Mom. of Inertia       =     0.33       Core radius (km)      = ~3200
  Geometric Albedo      =     0.65       Potential Love # k2   = ~0.25
  GM (km^3/s^2)         = 324858.592     Equatorial Radius, Re = 6051.893 km
  GM 1-sigma (km^3/s^2) =    +-0.006     Mass ratio (Sun/Venus)= 408523.72
  Atmos. pressure (bar) =  90            Max. angular diam.    =   60.2"
  Mean Temperature (K)  = 735            Visual mag. V(1,0)    =   -4.40
  Obliquity to orbit    = 177.3 deg      Hill's sphere rad.,Rp =  167.1
  Sidereal orb. per., y =   0.61519726   Orbit speed, km/s     =   35.021
  Sidereal orb. per., d = 224.70079922   Escape speed, km/s    =   10.361
                                 Perihelion  Aphelion    Mean
  Solar Constant (W/m^2)         2759        2650        2614
  Maximum Planetary IR (W/m^2)    153         153         153
  Minimum Planetary IR (W/m^2)    153         153         153
*******************************************************************************
 
 
*******************************************************************************
Ephemeris / WWW_USER Fri Jun 19 18:04:33 2020 Pasadena, USA      / Horizons
*******************************************************************************
Target body name: Venus (299)                     {source: DE431mx}
Center body name: Solar System Barycenter (0)     {source: DE431mx}
Center-site name: BODY CENTER
*******************************************************************************
Start time      : A.D. 1969-Jun-28 00:00:00.0000 TDB
Stop  time      : A.D. 2071-May-04 00:00:00.0000 TDB
Step-size       : 7200 minutes
*******************************************************************************
Center geodetic : 0.00000000,0.00000000,0.0000000 {E-lon(deg),Lat(deg),Alt(km)}
Center cylindric: 0.00000000,0.00000000,0.0000000 {E-lon(deg),Dxy(km),Dz(km)}
Center radii    : (undefined)                                                  
Output units    : AU-D
Output type     : GEOMETRIC cartesian states
Output format   : 2 (position and velocity)
Reference frame : Ecliptic of J2000.0
*******************************************************************************
            JDTDB,            Calendar Date (TDB),        delta-T,                      X,                      Y,                      Z,                     VX,                     VY,                     VZ,
******************************************************************************************************************************************************************************************************************
$$SOE
2465360.500000000, A.D. 2037-Oct-29 00:00:00.0000,      69.182511,  7.264460785936375E-01, -6.167975799290134E-02, -4.254921394393557E-02,  1.436006042389759E-03,  2.007971288213923E-02,  1.938270141510231E-04,
2465365.500000000, A.D. 2037-Nov-03 00:00:00.0000,      69.182572,  7.266397732537359E-01,  3.892100725433095E-02, -4.117423589487380E-02, -1.359602337383072E-03,  2.009591713772067E-02,  3.553356412799179E-04,
2465370.500000000, A.D. 2037-Nov-08 00:00:00.0000,      69.182646,  7.128837191461829E-01,  1.386328441358836E-01, -3.900670243365608E-02, -4.135009039960123E-03,  1.972442089070926E-02,  5.103404540901990E-04,
2465375.500000000, A.D. 2037-Nov-13 00:00:00.0000,      69.182730,  6.854120358370303E-01,  2.355274839246713E-01, -3.608667134437599E-02, -6.837032626165702E-03,  1.897052780708235E-02,  6.558462657224978E-04,
2465380.500000000, A.D. 2037-Nov-18 00:00:00.0000,      69.182822,  6.447229975471624E-01,  3.277213344900976E-01, -3.246882523227272E-02, -9.413354942685876E-03,  1.784680191432588E-02,  7.890076553029538E-04,
2465385.500000000, A.D. 2037-Nov-23 00:00:00.0000,      69.182923,  5.915722648515380E-01,  4.134116316378912E-01, -2.822158331851991E-02, -1.181350492251222E-02,  1.637298580509530E-02,  9.071845964719505E-04,
2465390.500000000, A.D. 2037-Nov-28 00:00:00.0000,      69.183031,  5.269611653458240E-01,  4.909118489491482E-01, -2.342593782354715E-02, -1.398985232842899E-02,  1.457578421850602E-02,  1.007996805941412E-03,
2465395.500000000, A.D. 2037-Dec-03 00:00:00.0000,      69.183149,  4.521200195945804E-01,  5.586856706171173E-01, -1.817402430111517E-02, -1.589859242900952E-02,  1.248850444846960E-02,  1.089375596879002E-03,
2465400.500000000, A.D. 2037-Dec-08 00:00:00.0000,      69.183274,  3.684866126640606E-01,  6.153787959226699E-01, -1.256744182949768E-02, -1.750069905152305E-02,  1.015054791773341E-02,  1.149611833393192E-03,
2465405.500000000, A.D. 2037-Dec-13 00:00:00.0000,      69.183405,  2.776800317250632E-01,  6.598478239605720E-01, -6.715346300574939E-03, -1.876282078303170E-02,  7.606750685250727E-03,  1.187398501210397E-03,
2465410.500000000, A.D. 2037-Dec-18 00:00:00.0000,      69.183539,  1.814702198567470E-01,  6.911854688552351E-01, -7.323471530114215E-04, -1.965809364602985E-02,  4.906576355529035E-03,  1.201866519276801E-03,
2465415.500000000, A.D. 2037-Dec-23 00:00:00.0000,      69.183676,  8.174373546594113E-02,  7.087413904823907E-01,  5.263754737810660E-03, -2.016684130099382E-02,  2.103171388266972E-03,  1.192612190347421E-03,
2465420.500000000, A.D. 2037-Dec-28 00:00:00.0000,      69.183815, -1.953364976358117E-02,  7.121379872070326E-01,  1.115434251159800E-02, -2.027713509064513E-02, -7.477023637090081E-04,  1.159714896794924E-03,
2465425.500000000, A.D. 2038-Jan-02 00:00:00.0000,      69.183958, -1.203567505170619E-01,  7.012805891687781E-01,  1.682242062873932E-02, -1.998518911291560E-02, -3.588835640378997E-03,  1.103743975264276E-03,
2465430.500000000, A.D. 2038-Jan-07 00:00:00.0000,      69.184102, -2.187222846312660E-01,  6.763616196317972E-01,  2.215505747462847E-02, -1.929556879527912E-02, -6.362811248574687E-03,  1.025753821959225E-03,
2465435.500000000, A.D. 2038-Jan-12 00:00:00.0000,      69.184245, -3.126707312108816E-01,  6.378584505656015E-01,  2.704577264985095E-02, -1.822119666577195E-02, -9.013280867718479E-03,  9.272665976891995E-04,
2465440.500000000, A.D. 2038-Jan-17 00:00:00.0000,      69.184385, -4.003276896406965E-01,  5.865248584579874E-01,  3.139680656328396E-02, -1.678314610057328E-02, -1.148624173134450E-02,  8.102425018892791E-04,
2465445.500000000, A.D. 2038-Jan-22 00:00:00.0000,      69.184520, -4.799436745986222E-01,  5.233761783329209E-01,  3.512121165689940E-02, -1.501022271716245E-02, -1.373127406912949E-02,  6.770383229497695E-04,
2465450.500000000, A.D. 2038-Jan-27 00:00:00.0000,      69.184652, -5.499313041322158E-01,  4.496684510307474E-01,  3.814470956651016E-02, -1.293834245416475E-02, -1.570269984924520E-02,  5.303554944270635E-04,
2465455.500000000, A.D. 2038-Feb-01 00:00:00.0000,      69.184781, -6.088989046702893E-01,  3.668720527974729E-01,  4.040726543638022E-02, -1.060972382166749E-02, -1.736062511669319E-02,  3.731791749082239E-04,
2465460.500000000, A.D. 2038-Feb-06 00:00:00.0000,      69.184905, -6.556796630376752E-01,  2.766404748623113E-01,  4.186433887572755E-02, -8.071919148934658E-03, -1.867183258719786E-02,  2.087101509730891E-04,
2465465.500000000, A.D. 2038-Feb-11 00:00:00.0000,      69.185021, -6.893555958179469E-01,  1.807750720505183E-01,  4.248778081054429E-02, -5.376715902800921E-03, -1.961049756063097E-02,  4.029166457166998E-05,
2465470.500000000, A.D. 2038-Feb-16 00:00:00.0000,      69.185128, -7.092757743163567E-01,  8.118671536538272E-02,  4.226635658147530E-02, -2.578943867851000E-03, -2.015870789308557E-02, -1.286665199303174E-04,
2465475.500000000, A.D. 2038-Feb-21 00:00:00.0000,      69.185225, -7.150684300549882E-01, -2.014464093084495E-02,  4.120588743955128E-02,  2.647732866523140E-04, -2.030677711971719E-02, -2.947644298704606E-04,
2465480.500000000, A.D. 2038-Feb-26 00:00:00.0000,      69.185314, -7.066467606693638E-01, -1.212114339871030E-01,  3.932901433828604E-02,  3.097282964713319E-03, -2.005334832955153E-02, -4.546862823413469E-04,
2465485.500000000, A.D. 2038-Mar-03 00:00:00.0000,      69.185394, -6.842084485347411E-01, -2.200199736189149E-01,  3.667459894559742E-02,  5.862147561212048E-03, -1.940529451460298E-02, -6.052708712671077E-04,
2465490.500000000, A.D. 2038-Mar-08 00:00:00.0000,      69.185465, -6.482290846037773E-01, -3.146309421093729E-01,  3.329678656778458E-02,  8.504833116736773E-03, -1.837742833287503E-02, -7.435761440411771E-04,
2465495.500000000, A.D. 2038-Mar-13 00:00:00.0000,      69.185524, -5.994498496285250E-01, -4.031980045973481E-01,  2.926376379786971E-02,  1.097381325501052E-02, -1.699204013415669E-02, -8.669365271009602E-04,
2465500.500000000, A.D. 2038-Mar-18 00:00:00.0000,      69.185569, -5.388599382053333E-01, -4.840037278835547E-01,  2.465624993371936E-02,  1.322156466970331E-02, -1.527828744034198E-02, -9.730119505702705E-04,
2465505.500000000, A.D. 2038-Mar-23 00:00:00.0000,      69.185603, -4.676743143595582E-01, -5.554921288085127E-01,  1.956576547273228E-02,  1.520543662233682E-02, -1.327146173710646E-02, -1.059827915577551E-03,
2465510.500000000, A.D. 2038-Mar-28 00:00:00.0000,      69.185624, -3.873074594789290E-01, -6.162973058683463E-01,  1.409272332868106E-02,  1.688838311633973E-02, -1.101215946391547E-02, -1.125806319655892E-03,
2465515.500000000, A.D. 2038-Apr-02 00:00:00.0000,      69.185636, -2.993438153649918E-01, -6.652677416617059E-01,  8.344388995409392E-03,  1.823955219787819E-02, -8.545383663636002E-03, -1.169787084400926E-03,
